IRIDIUM 155             
1 43573U 18061E   25263.03715881  .00000054  00000+0  12136-4 0  9994
2 43573  86.4042 169.5864 0002396  85.0455 275.1015 14.34217841374633
IRIDIUM 154             
1 43574U 18061F   25262.80882416  .00000014  00000+0 -19919-5 0  9992
2 43574  86.4045 169.8009 0002074  80.1787 279.9643 14.34217127374656
IRIDIUM 163             
1 43575U 18061G   25262.99910323 -.00000032  00000+0 -18453-4 0  9994
2 43575  86.4043 169.6457 0002070  88.4085 271.7348 14.34217331374657
IRIDIUM 156             
1 43576U 18061H   25262.97373337 -.00000039  00000+0 -20917-4 0  9996
2 43576  86.4047 169.6636 0002414  82.7993 277.3478 14.34217327374648
IRIDIUM 164             
1 43577U 18061J   25262.81516697  .00000020  00000+0  15942-6 0  9990
2 43577  86.4044 169.7658 0002176  78.7799 281.3641 14.34217908374669
IRIDIUM 159             
1 43578U 18061K   25262.78346515  .00000264  00000+0  87367-4 0  9995
2 43578  86.4041 169.7214 0002012  83.2301 276.9123 14.34220565374628
IRIDIUM 180             
1 43922U 19002A   25262.99225668 -.00000007  00000+0 -96915-5 0  9999
2 43922  86.3925 106.5736 0001979  90.6425 269.4998 14.34217298350269
IRIDIUM 176             
1 43923U 19002B   25262.64751546  .00000666  00000+0  10171-3 0  9998
2 43923  86.6046 106.7008 0003004  93.0929 267.0632 14.72249894359445
IRIDIUM 168             
1 43924U 19002C   25262.98591405 -.00000022  00000+0 -15097-4 0  9993
2 43924  86.3926 106.6460 0002022  88.9459 271.1968 14.34217208350240
IRIDIUM 173             
1 43925U 19002D   25262.97322801  .00000038  00000+0  66301-5 0  9995
2 43925  86.3920 106.5515 0002187  91.8761 268.2685 14.34217625350220
IRIDIUM 169             
1 43926U 19002E   25263.09763183  .00000022  00000+0  51180-6 0  9995
2 43926  86.4247 138.1269 0003173  98.0127 262.1431 14.38607876351398
IRIDIUM 172             
1 43927U 19002F   25262.96688496  .00000004  00000+0 -56821-5 0  9991
2 43927  86.3923 106.5609 0001790  92.3956 267.7444 14.34217605350236
IRIDIUM 175             
1 43928U 19002G   25262.91451484  .00001074  00000+0  16640-3 0  9992
2 43928  86.1480  53.6935 0002782  74.7018 285.4506 14.72250989359477
IRIDIUM 171             
1 43929U 19002H   25263.01762696 -.00000073  00000+0 -33283-4 0  9998
2 43929  86.3930 106.8162 0002163  80.1071 280.0369 14.34216860350237
IRIDIUM 170             
1 43930U 19002J   25262.99353720  .00000742  00000+0  11378-3 0  9991
2 43930  86.6045 106.5604 0002416  86.5007 273.6486 14.72253639359501
IRIDIUM 167             
1 43931U 19002K   25263.01128555  .00000084  00000+0  22894-4 0  9997
2 43931  86.3924 106.5631 0002508  80.6336 279.5143 14.34217199350232
IRIDIUM 181             
1 56726U 23068S   25262.99914524  .00000323  00000+0  89864-4 0  9991
2 56726  86.4579 169.6784 0002169  68.6951 291.4481 14.43309938123460
IRIDIUM 177             
1 56727U 23068T   25262.91615772  .00000452  00000+0  55973-4 0  9994
2 56727  86.1915  97.1557 0002387  81.6460 278.5032 14.80232223126382
IRIDIUM 174             
1 56728U 23068U   25263.04916521  .00000312  00000+0  45585-4 0  9999
2 56728  86.6055 106.6571 0002255  97.5827 262.5646 14.72251983126279
IRIDIUM 178             
1 56729U 23068V   25263.10809728  .00001208  00000+0  15545-3 0  9994
2 56729  86.6565 138.2454 0002562  86.9552 273.1962 14.80241967126410
IRIDIUM 179             
1 56730U 23068W   25263.10271842  .00001223  00000+0  15746-3 0  9996
2 56730  86.6823 146.4081 0002866  81.5704 278.5843 14.80244612126410
